TANSAT                  
1 41898U 16081A   26183.60041861  .00000521  00000+0  11888-3 0  9998
2 41898  98.5359 184.3137 0019110 261.6379  98.2654 14.59963756506879
JILIN-1 03              
1 41914U 17002B   26183.53787123  .00013265  00000+0  31319-3 0  9991
2 41914  97.1943 190.4089 0007940 112.6006 247.6083 15.41952518524227
CARTOSAT-2D             
1 41948U 17008A   26183.43877270  .00006503  00000+0  31092-3 0  9991
2 41948  97.4098 242.4603 0005289 175.3093 184.8193 15.19326746519898
CARTOSAT-2E             
1 42767U 17036C   26183.58832089  .00006127  00000+0  29357-3 0  9990
2 42767  97.4263 243.1373 0002422 239.2698 120.8298 15.19287276500486
IRIDIUM 113             
1 42803U 17039A   26183.65920269  .00000278  00000+0  92164-4 0  9998
2 42803  86.3986 315.7110 0002184  90.7418 269.4028 14.34219033473400
NORSAT 2                
1 42828U 17042D   26183.47711582  .00011321  00000+0  49477-3 0  9994
2 42828  97.4045 356.6776 0009276   6.1657 353.9691 15.22220730490063
TECHNOSAT               
1 42829U 17042E   26183.40827025  .00003039  00000+0  21732-3 0  9999
2 42829  97.4294 340.4887 0018615  45.8311 314.4442 15.05046328488993
FLYING LAPTOP           
1 42831U 17042G   26183.64960918  .00004368  00000+0  34303-3 0  9991
2 42831  97.4759 338.5939 0020002  72.5397 287.8012 15.01246024488775
WNISAT 1R               
1 42835U 17042L   26183.41658618  .00002586  00000+0  20241-3 0  9997
2 42835  97.4838 338.9947 0011995 102.3625 257.8944 15.01825585488795
LEMUR-2-GREENBERG       
1 42837U 17042N   26183.44087914  .00018876  00000+0  61596-3 0  9994
2 42837  97.3821   3.9997 0007361 314.4410  45.6229 15.31801365490720
LEMUR-2-FURIAUS         
1 42840U 17042R   26183.44524627  .00020324  00000+0  68474-3 0  9998
2 42840  97.3770   1.9246 0007034  18.4944 341.6552 15.30756023490549
CORVUS BC2              
1 42846U 17042X   26183.40685672  .00004259  00000+0  29262-3 0  9999
2 42846  97.4073 344.1660 0014118  63.2233 297.0438 15.06389012489351
CORVUS BC1              
1 42847U 17042Y   26183.39978893  .00004665  00000+0  31879-3 0  9996
2 42847  97.4111 344.9831 0012579  41.7865 318.4321 15.06556614489380
VRSS-2                  
1 42954U 17060A   26183.58940727  .00001167  00000+0  15590-3 0  9997
2 42954  97.6500 220.6223 0018385  52.6518 307.6367 14.81220309470735
MOHAMMED VI-A           
1 43005U 17070A   26183.65615297  .00001049  00000+0  15580-3 0  9993
2 43005  97.9557 255.7741 0001189  82.4411 277.6935 14.77090556466263
FENGYUN 3D              
1 43010U 17072A   26183.65179757 -.00000252  00000+0 -97327-4 0  9994
2 43010  99.0132 158.3541 0002169  37.2253 322.9073 14.19741024447184
NOAA 20 (JPSS-1)        
1 43013U 17073A   26183.57881012  .00000076  00000+0  57149-4 0  9993
2 43013  98.7773 122.9047 0000874 132.2595 227.8655 14.19514528446655
MAKERSAT 0              
1 43016U 17073D   26182.74249883  .00021095  00000+0  56439-3 0  9992
2 43016  97.4602  65.3778 0104893 220.3477 138.9950 15.32570583468697
RADFXSAT (FOX-1B)       
1 43017U 17073E   26183.15636973  .00007671  00000+0  33553-3 0  9995
2 43017  97.4681  50.0656 0148185 277.0157  81.4241 15.12917223467651
JILIN-1 04              
1 43022U 17074A   26183.58932257  .00014131  00000+0  32405-3 0  9997
2 43022  97.4875 293.6167 0005039 133.0779 227.0891 15.42842757476645
JILIN-1 05              
1 43023U 17074B   26183.58109291  .00008033  00000+0  24565-3 0  9994
2 43023  97.4880 289.9460 0005719 160.7566 199.3894 15.34114155476360
JILIN-1 06              
1 43024U 17074C   26183.62002639  .00006872  00000+0  21206-3 0  9996
2 43024  97.4805 286.9751 0007085 173.4093 186.7244 15.33877375476203
IRIDIUM 116             
1 43072U 17083C   26183.63383342  .00000044  00000+0  87492-5 0  9999
2 43072  86.3978 315.5432 0002274 100.8170 259.3282 14.34217746446389
IRIDIUM 130             
1 43073U 17083D   26183.60211942  .00000050  00000+0  10684-4 0  9998
2 43073  86.3988 315.8332 0002064  98.5878 261.5552 14.34217566446327
LKW-2                   
1 43080U 17084A   26183.63048818  .00009469  00000+0  36469-3 0  9991
2 43080  97.1179 222.7057 0002659 142.1683 217.9744 15.26548795474048
SUPERVIEW-1 03          
1 43099U 18002A   26183.57031868  .00019166  00000+0  46612-3 0  9998
2 43099  97.3134 268.3886 0047472 125.2749 235.2952 15.39812672470732
CARTOSAT-2F             
1 43111U 18004A   26183.62072253  .00007194  00000+0  34507-3 0  9992
2 43111  97.4781 243.1048 0001633 158.9368 201.1934 15.19192174469675
LKW-3                   
1 43146U 18006A   26183.62998457  .00014948  00000+0  43477-3 0  9996
2 43146  97.6625 344.8105 0001906 231.2751 128.8322 15.35544921471082
