OBJECT_NAME,OBJECT_ID,EPOCH,MEAN_MOTION,ECCENTRICITY,INCLINATION,RA_OF_ASC_NODE,ARG_OF_PERICENTER,MEAN_ANOMALY,EPHEMERIS_TYPE,CLASSIFICATION_TYPE,NORAD_CAT_ID,ELEMENT_SET_NO,REV_AT_EPOCH,BSTAR,MEAN_MOTION_DOT,MEAN_MOTION_DDOT
TANSAT,2016-081A,2026-07-02T14:24:36.167904,14.59963756,.00191108,98.5359,184.3137,261.6379,98.2654,0,U,41898,999,50687,.11888254E-3,.521E-5,0
JILIN-1 03,2017-002B,2026-07-02T12:54:32.074272,15.41952518,.000794,97.1943,190.4089,112.6006,247.6083,0,U,41914,999,52422,.31319154E-3,.13265E-3,0
CARTOSAT-2D,2017-008A,2026-07-02T10:31:49.961280,15.19326746,.00052892,97.4098,242.4603,175.3093,184.8193,0,U,41948,999,51989,.31091661E-3,.6503E-4,0
CARTOSAT-2E,2017-036C,2026-07-02T14:07:10.924896,15.19287276,.00024225,97.4263,243.1373,239.2698,120.8298,0,U,42767,999,50048,.29357125E-3,.6127E-4,0
IRIDIUM 113,2017-039A,2026-07-02T15:49:15.112416,14.34219033,.00021847,86.3986,315.7110,90.7418,269.4028,0,U,42803,999,47340,.92164277E-4,.278E-5,0
NORSAT 2,2017-042D,2026-07-02T11:27:02.806848,15.22220730,.0009276,97.4045,356.6776,6.1657,353.9691,0,U,42828,999,49006,.49477463E-3,.11321E-3,0
TECHNOSAT,2017-042E,2026-07-02T09:47:54.549600,15.05046328,.00186155,97.4294,340.4887,45.8311,314.4442,0,U,42829,999,48899,.21731848E-3,.3039E-4,0
FLYING LAPTOP,2017-042G,2026-07-02T15:35:26.233152,15.01246024,.00200023,97.4759,338.5939,72.5397,287.8012,0,U,42831,999,48877,.34303477E-3,.4368E-4,0
WNISAT 1R,2017-042L,2026-07-02T09:59:53.045952,15.01825585,.00119953,97.4838,338.9947,102.3625,257.8944,0,U,42835,999,48879,.20241304E-3,.2586E-4,0
LEMUR-2-GREENBERG,2017-042N,2026-07-02T10:34:51.957696,15.31801365,.00073613,97.3821,3.9997,314.4410,45.6229,0,U,42837,999,49072,.61595773E-3,.18876E-3,0
LEMUR-2-FURIAUS,2017-042R,2026-07-02T10:41:09.277728,15.30756023,.00070345,97.3770,1.9246,18.4944,341.6552,0,U,42840,999,49054,.68473573E-3,.20324E-3,0
CORVUS BC2,2017-042X,2026-07-02T09:45:52.420608,15.06389012,.00141189,97.4073,344.1660,63.2233,297.0438,0,U,42846,999,48935,.29261725E-3,.4259E-4,0
CORVUS BC1,2017-042Y,2026-07-02T09:35:41.763552,15.06556614,.00125799,97.4111,344.9831,41.7865,318.4321,0,U,42847,999,48938,.31879253E-3,.4665E-4,0
VRSS-2,2017-060A,2026-07-02T14:08:44.788128,14.81220309,.0018385,97.6500,220.6223,52.6518,307.6367,0,U,42954,999,47073,.15590341E-3,.1167E-4,0
MOHAMMED VI-A,2017-070A,2026-07-02T15:44:51.616608,14.77090556,.00011891,97.9557,255.7741,82.4411,277.6935,0,U,43005,999,46626,.15579723E-3,.1049E-4,0
FENGYUN 3D,2017-072A,2026-07-02T15:38:35.310048,14.19741024,.00021695,99.0132,158.3541,37.2253,322.9073,0,U,43010,999,44718,-.9732697E-4,-.252E-5,0
NOAA 20 (JPSS-1),2017-073A,2026-07-02T13:53:29.194368,14.19514528,.00008747,98.7773,122.9047,132.2595,227.8655,0,U,43013,999,44665,.57149367E-4,.76E-6,0
MAKERSAT 0,2017-073D,2026-07-01T17:49:11.898912,15.32570583,.01048938,97.4602,65.3778,220.3477,138.9950,0,U,43016,999,46869,.56438682E-3,.21095E-3,0
RADFXSAT (FOX-1B),2017-073E,2026-07-02T03:45:10.344672,15.12917223,.01481852,97.4681,50.0656,277.0157,81.4241,0,U,43017,999,46765,.33553019E-3,.7671E-4,0
JILIN-1 04,2017-074A,2026-07-02T14:08:37.470048,15.42842757,.00050396,97.4875,293.6167,133.0779,227.0891,0,U,43022,999,47664,.3240514E-3,.14131E-3,0
JILIN-1 05,2017-074B,2026-07-02T13:56:46.427424,15.34114155,.00057192,97.4880,289.9460,160.7566,199.3894,0,U,43023,999,47636,.2456528E-3,.8033E-4,0
JILIN-1 06,2017-074C,2026-07-02T14:52:50.280096,15.33877375,.00070853,97.4805,286.9751,173.4093,186.7244,0,U,43024,999,47620,.21206383E-3,.6872E-4,0
IRIDIUM 116,2017-083C,2026-07-02T15:12:43.207488,14.34217746,.00022742,86.3978,315.5432,100.8170,259.3282,0,U,43072,999,44638,.8749231E-5,.44E-6,0
IRIDIUM 130,2017-083D,2026-07-02T14:27:03.117888,14.34217566,.00020648,86.3988,315.8332,98.5878,261.5552,0,U,43073,999,44632,.10684355E-4,.5E-6,0
LKW-2,2017-084A,2026-07-02T15:07:54.178752,15.26548795,.00026594,97.1179,222.7057,142.1683,217.9744,0,U,43080,999,47404,.36468944E-3,.9469E-4,0
SUPERVIEW-1 03,2018-002A,2026-07-02T13:41:15.533952,15.39812672,.00474728,97.3134,268.3886,125.2749,235.2952,0,U,43099,999,47073,.46612272E-3,.19166E-3,0
CARTOSAT-2F,2018-004A,2026-07-02T14:53:50.426592,15.19192174,.00016333,97.4781,243.1048,158.9368,201.1934,0,U,43111,999,46967,.34507435E-3,.7194E-4,0
LKW-3,2018-006A,2026-07-02T15:07:10.666848,15.35544921,.00019067,97.6625,344.8105,231.2751,128.8322,0,U,43146,999,47108,.43477295E-3,.14948E-3,0
